NORAD_CAT_ID,OBJECT_NAME,OBJECT_TYPE,EPOCH,MEAN_MOTION,ECCENTRICITY,INCLINATION,RA_OF_ASC_NODE,ARG_OF_PERICENTER,MEAN_ANOMALY,BSTAR,MEAN_MOTION_DOT,MEAN_MOTION_DDOT,TLE_LINE0,TLE_LINE1,TLE_LINE2,SEMIMAJOR_AXIS,PERIOD,APOGEE,PERIGEE,DECAYED
55941.0,STARLINK-5914,PAYLOAD,2023-08-25 20:11:34,14.98330696,0.0002988,69.9992,101.5174,269.3528,90.7289,1.8035e-06,-7.1e-07,0.0,0 STARLINK-5914,1 55941U 23037AD  23237.84137659 -.00000071  00000-0  18035-5 0  9990,2 55941  69.9992 101.5174 0002988 269.3528  90.7289 14.98330696 25147,6950.191,96.107,574.132,569.979,0.0
55941.0,STARLINK-5914,PAYLOAD,2023-08-26 13:49:03,14.9832951,0.0002996,69.9988,99.6653,271.426,88.6556,-4.3496e-05,-6.12e-06,0.0,0 STARLINK-5914,1 55941U 23037AD  23238.57573758 -.00000612  00000-0 -43496-4 0  9995,2 55941  69.9988  99.6653 0002996 271.4260  88.6556 14.98329510 25255,6950.194,96.107,574.142,569.977,0.0
55941.0,STARLINK-5914,PAYLOAD,2023-08-26 18:37:27,14.98329448,0.0003003,69.9988,99.1603,271.2973,88.7842,-4.2386e-05,-5.99e-06,0.0,0 STARLINK-5914,1 55941U 23037AD  23238.77601747 -.00000599  00000-0 -42386-4 0  9998,2 55941  69.9988  99.1603 0003003 271.2973  88.7842 14.98329448 25624,6950.195,96.107,574.147,569.972,0.0
55941.0,STARLINK-5914,PAYLOAD,2023-08-26 20:13:35,14.98329121,0.0002861,69.9991,98.9925,269.7446,90.3385,-3.3951e-05,-4.98e-06,0.0,0 STARLINK-5914,1 55941U 23037AD  23238.84277747 -.00000498  00000-0 -33951-4 0  9991,2 55941  69.9991  98.9925 0002861 269.7446  90.3385 14.98329121 25292,6950.196,96.107,574.049,570.072,0.0
55941.0,STARLINK-5914,PAYLOAD,2023-08-27 01:02:00,14.98329632,0.0002837,69.9992,98.487,271.8069,88.2766,-1.9811e-05,-3.29e-06,0.0,0 STARLINK-5914,1 55941U 23037AD  23239.04305697 -.00000329  00000-0 -19811-4 0  9992,2 55941  69.9992  98.4870 0002837 271.8069  88.2766 14.98329632 25325,6950.194,96.107,574.031,570.087,0.0
55941.0,STARLINK-5914,PAYLOAD,2023-08-27 20:15:36,14.98330351,0.0003016,69.9989,96.4674,271.1514,88.9299,1.1512e-05,4.4e-07,0.0,0 STARLINK-5914,1 55941U 23037AD  23239.84417452  .00000044  00000-0  11512-4 0  9995,2 55941  69.9989  96.4674 0003016 271.1514  88.9299 14.98330351 25440,6950.192,96.107,574.153,569.961,0.0
55941.0,STARLINK-5914,PAYLOAD,2023-08-28 01:04:00,14.98331599,0.0003042,69.999,95.9626,272.9538,87.1273,2.9487e-05,2.59e-06,0.0,0 STARLINK-5914,1 55941U 23037AD  23240.04445315  .00000259  00000-0  29487-4 0  9996,2 55941  69.9990  95.9626 0003042 272.9538  87.1273 14.98331599 25816,6950.188,96.107,574.167,569.939,0.0
55941.0,STARLINK-5914,PAYLOAD,2023-08-28 20:17:37,14.98327935,0.000297,69.9989,93.9424,270.6233,89.4585,1.3883e-05,7.3e-07,0.0,0 STARLINK-5914,1 55941U 23037AD  23240.84557514  .00000073  00000-0  13883-4 0  9996,2 55941  69.9989  93.9424 0002970 270.6233  89.4585 14.98327935 25599,6950.199,96.107,574.128,570.0,0.0
55941.0,STARLINK-5914,PAYLOAD,2023-08-29 01:06:01,14.98329517,0.0003028,69.9986,93.4372,270.1525,89.9287,2.6385e-05,2.22e-06,0.0,0 STARLINK-5914,1 55941U 23037AD  23241.04585365  .00000222  00000-0  26385-4 0  9991,2 55941  69.9986  93.4372 0003028 270.1525  89.9287 14.98329517 25960,6950.194,96.107,574.164,569.955,0.0
55941.0,STARLINK-5914,PAYLOAD,2023-08-29 21:55:46,14.98329011,0.0003037,69.9988,91.249,269.8677,90.2134,-3.2719e-05,-4.83e-06,0.0,0 STARLINK-5914,1 55941U 23037AD  23241.91373604 -.00000483  00000-0 -32719-4 0  9997,2 55941  69.9988  91.2490 0003037 269.8677  90.2134 14.98329011 25754,6950.196,96.107,574.172,569.95,0.0
55941.0,STARLINK-5914,PAYLOAD,2023-08-30 17:09:23,14.98329565,0.0003087,69.9987,89.2289,270.092,89.9885,2.8891e-05,2.52e-06,0.0,0 STARLINK-5914,1 55941U 23037AD  23242.71485370  .00000252  00000-0  28891-4 0  9998,2 55941  69.9987  89.2289 0003087 270.0920  89.9885 14.98329565 26210,6950.194,96.107,574.205,569.914,0.0
55941.0,STARLINK-5914,PAYLOAD,2023-08-30 23:33:55,14.98331787,0.000309,69.9987,88.5555,270.1132,89.9673,3.2364e-05,2.93e-06,0.0,0 STARLINK-5914,1 55941U 23037AD  23242.98189201  .00000293  00000-0  32364-4 0  9996,2 55941  69.9987  88.5555 0003090 270.1132  89.9673 14.98331787 25918,6950.187,96.107,574.2,569.905,0.0
55941.0,STARLINK-5914,PAYLOAD,2023-09-01 01:12:04,14.98329321,0.0003086,69.9988,85.862,269.9972,90.0833,1.941e-05,1.39e-06,0.0,0 STARLINK-5914,1 55941U 23037AD  23244.05005338  .00000139  00000-0  19410-4 0  9990,2 55941  69.9988  85.8620 0003086 269.9972  90.0833 14.98329321 26413,6950.195,96.107,574.205,569.915,0.0
55941.0,STARLINK-5914,PAYLOAD,2023-09-02 06:02:29,14.98331442,0.0003056,69.9987,82.8321,270.3477,89.7331,1.2126e-05,5.2e-07,0.0,0 STARLINK-5914,1 55941U 23037AD  23245.25173072  .00000052  00000-0  12126-4 0  9995,2 55941  69.9987  82.8321 0003056 270.3477  89.7331 14.98331442 26594,6950.188,96.107,574.177,569.929,0.0
55941.0,STARLINK-5914,PAYLOAD,2023-09-02 12:27:01,14.98328849,0.0003027,69.9989,82.159,270.5841,89.4971,-1.3775e-05,-2.57e-06,0.0,0 STARLINK-5914,1 55941U 23037AD  23245.51877309 -.00000257  00000-0 -13775-4 0  9998,2 55941  69.9989  82.1590 0003027 270.5841  89.4971 14.98328849 26293,6950.196,96.107,574.165,569.958,0.0
55941.0,STARLINK-5914,PAYLOAD,2023-09-02 17:15:17,14.98381531,0.0003177,69.999,81.6539,258.8642,101.216,0.0022487,0.00026877,0.0,0 STARLINK-5914,1 55941U 23037AD  23245.71894833  .00026877  00000-0  22487-2 0  9993,2 55941  69.9990  81.6539 0003177 258.8642 101.2160 14.98381531 26667,6950.034,96.104,574.107,569.691,0.0
55941.0,STARLINK-5914,PAYLOAD,2023-09-02 20:27:41,14.98284818,0.0002466,69.9996,81.3183,251.6529,108.4362,0.0011588,0.00013744,0.0,0 STARLINK-5914,1 55941U 23037AD  23245.85255879  .00013744  00000-0  11588-2 0  9998,2 55941  69.9996  81.3183 0002466 251.6529 108.4362 14.98284818 26685,6950.333,96.11,573.912,570.484,0.0
55941.0,STARLINK-5914,PAYLOAD,2023-09-03 06:04:31,14.98277544,0.0002508,69.9991,80.3073,266.7332,93.354,0.00087435,0.00010341,0.0,0 STARLINK-5914,1 55941U 23037AD  23246.25314329  .00010341  00000-0  87435-3 0  9994,2 55941  69.9991  80.3073 0002508 266.7332  93.3540 14.98277544 26748,6950.355,96.11,573.963,570.477,0.0
55941.0,STARLINK-5914,PAYLOAD,2023-09-03 18:53:36,14.98313889,0.0002932,69.9994,78.9607,271.2442,88.8381,-0.00024255,-2.985e-05,0.0,0 STARLINK-5914,1 55941U 23037AD  23246.78722925 -.00002985  00000-0 -24255-3 0  9995,2 55941  69.9994  78.9607 0002932 271.2442  88.8381 14.98313889 26825,6950.243,96.108,574.146,570.07,0.0
55941.0,STARLINK-5914,PAYLOAD,2023-09-03 23:41:59,14.98333317,0.0002418,70.001,78.4568,271.9385,88.1497,6.3817e-05,6.69e-06,0.0,0 STARLINK-5914,1 55941U 23037AD  23246.98749044  .00000669  00000-0  63817-4 0  9991,2 55941  70.0010  78.4568 0002418 271.9385  88.1497 14.98333317 26852,6950.183,96.107,573.728,570.367,0.0
55941.0,STARLINK-5914,PAYLOAD,2023-09-04 06:06:30,14.98348119,0.0002908,70.0007,77.7825,270.261,89.8216,0.00027511,3.193e-05,0.0,0 STARLINK-5914,1 55941U 23037AD  23247.25451482  .00003193  00000-0  27511-3 0  9993,2 55941  70.0007  77.7825 0002908 270.2610  89.8216 14.98348119 26890,6950.137,96.106,574.023,569.981,0.0
55941.0,STARLINK-5914,PAYLOAD,2023-09-04 18:55:35,14.98333059,0.0002812,70.0008,76.4362,268.3114,91.7723,8.2089e-05,8.87e-06,0.0,0 STARLINK-5914,1 55941U 23037AD  23247.78860847  .00000887  00000-0  82089-4 0  9999,2 55941  70.0008  76.4362 0002812 268.3114  91.7723 14.98333059 26975,6950.183,96.107,574.003,570.094,0.0
55941.0,STARLINK-5914,PAYLOAD,2023-09-04 22:07:51,14.98333497,0.0003023,69.9999,76.0996,269.3821,90.6992,6.4616e-05,6.78e-06,0.0,0 STARLINK-5914,1 55941U 23037AD  23247.92212827  .00000678  00000-0  64616-4 0  9998,2 55941  69.9999  76.0996 0003023 269.3821  90.6992 14.98333497 26658,6950.182,96.107,574.148,569.946,0.0
55941.0,STARLINK-5914,PAYLOAD,2023-09-05 18:57:36,14.9832959,0.0003021,69.9998,73.9106,270.0441,90.0372,2.9385e-05,2.58e-06,0.0,0 STARLINK-5914,1 55941U 23037AD  23248.79001137  .00000258  00000-0  29385-4 0  9992,2 55941  69.9998  73.9106 0003021 270.0441  90.0372 14.98329590 27129,6950.194,96.107,574.159,569.96,0.0
55941.0,STARLINK-5914,PAYLOAD,2023-09-06 12:35:05,14.98331277,0.0003061,69.9997,72.0585,270.5081,89.5727,6.8975e-06,-1.1e-07,0.0,0 STARLINK-5914,1 55941U 23037AD  23249.52437051 -.00000011  00000-0  68975-5 0  9999,2 55941  69.9997  72.0585 0003061 270.5081  89.5727 14.98331277 26893,6950.189,96.107,574.181,569.926,0.0
55941.0,STARLINK-5914,PAYLOAD,2023-09-06 18:59:37,14.98330312,0.0003098,70.0002,71.3855,272.1486,87.9319,2.2232e-05,1.72e-06,0.0,0 STARLINK-5914,1 55941U 23037AD  23249.79141091  .00000172  00000-0  22232-4 0  9996,2 55941  70.0002  71.3855 0003098 272.1486  87.9319 14.98330312 26935,6950.192,96.107,574.21,569.904,0.0
55941.0,STARLINK-5914,PAYLOAD,2023-09-06 23:48:02,14.98318266,0.0002745,70.0006,70.8806,269.4924,90.592,0.00024905,2.879e-05,0.0,0 STARLINK-5914,1 55941U 23037AD  23249.99169336  .00002879  00000-0  24905-3 0  9994,2 55941  70.0006  70.8806 0002745 269.4924  90.5920 14.98318266 27307,6950.229,96.108,574.002,570.186,0.0
55941.0,STARLINK-5914,PAYLOAD,2023-09-07 11:00:58,14.98365079,0.000264,69.9997,69.7017,273.9132,86.1725,-0.00059239,-7.16e-05,0.0,0 STARLINK-5914,1 55941U 23037AD  23250.45901055 -.00007160  00000-0 -59239-3 0  9997,2 55941  69.9997  69.7017 0002640 273.9132  86.1725 14.98365079 27374,6950.084,96.105,573.784,570.115,0.0
55941.0,STARLINK-5914,PAYLOAD,2023-09-07 19:01:38,14.98369841,0.0002733,69.9999,68.86,273.5126,86.572,-0.00069666,-8.404e-05,0.0,0 STARLINK-5914,1 55941U 23037AD  23250.79280375 -.00008404  00000-0 -69666-3 0  9996,2 55941  69.9999  68.8600 0002733 273.5126  86.5720 14.98369841 27084,6950.07,96.104,573.834,570.035,0.0
55941.0,STARLINK-5914,PAYLOAD,2023-09-08 04:38:27,14.98328595,0.0002971,69.9999,67.85,271.5996,88.4823,8.9773e-07,-8.2e-07,0.0,0 STARLINK-5914,1 55941U 23037AD  23251.19337123 -.00000082  00000-0  89773-6 0  9992,2 55941  69.9999  67.8500 0002971 271.5996  88.4823 14.98328595 27489,6950.197,96.107,574.127,569.997,0.0
